NORAD_CAT_ID,OBJECT_NAME,OBJECT_TYPE,EPOCH,MEAN_MOTION,ECCENTRICITY,INCLINATION,RA_OF_ASC_NODE,ARG_OF_PERICENTER,MEAN_ANOMALY,BSTAR,MEAN_MOTION_DOT,MEAN_MOTION_DDOT,TLE_LINE0,TLE_LINE1,TLE_LINE2,SEMIMAJOR_AXIS,PERIOD,APOGEE,PERIGEE,DECAYED
53741.0,STARLINK-4614,PAYLOAD,2024-04-05 14:05:49,15.08851548,0.0001138,53.2163,165.2408,89.3356,270.7766,3.3746e-05,2.49e-06,0.0,0 STARLINK-4614,1 53741U 22107AT  24096.58737602  .00000249  00000-0  33746-4 0  9993,2 53741  53.2163 165.2408 0001138  89.3356 270.7766 15.08851548 88663,6917.845,95.437,540.497,538.923,0.0
53741.0,STARLINK-4614,PAYLOAD,2024-04-06 10:45:50,15.08842737,0.0001154,53.2162,161.3751,87.648,272.4645,-6.0942e-05,-1.258e-05,0.0,0 STARLINK-4614,1 53741U 22107AT  24097.44849995 -.00001258  00000-0 -60942-4 0  9999,2 53741  53.2162 161.3751 0001154  87.6480 272.4645 15.08842737 88011,6917.872,95.437,540.535,538.939,0.0
53741.0,STARLINK-4614,PAYLOAD,2024-04-06 13:56:36,15.08843526,0.0001147,53.2162,160.7805,86.9955,273.1169,-6.8377e-05,-1.376e-05,0.0,0 STARLINK-4614,1 53741U 22107AT  24097.58097933 -.00001376  00000-0 -68377-4 0  9992,2 53741  53.2162 160.7805 0001147  86.9955 273.1169 15.08843526 88819,6917.87,95.437,540.528,538.941,0.0
53741.0,STARLINK-4614,PAYLOAD,2024-04-07 13:47:23,15.08841794,0.0001168,53.2159,156.3197,85.7466,274.366,-4.2698e-05,-9.67e-06,0.0,0 STARLINK-4614,1 53741U 22107AT  24098.57457681 -.00000967  00000-0 -42698-4 0  9995,2 53741  53.2159 156.3197 0001168  85.7466 274.3660 15.08841794 88967,6917.875,95.437,540.548,538.932,0.0
53741.0,STARLINK-4614,PAYLOAD,2024-04-08 10:27:24,15.08835418,0.00012,53.2163,152.4542,85.2483,274.8646,1.1356e-05,-1.07e-06,0.0,0 STARLINK-4614,1 53741U 22107AT  24099.43569908 -.00000107  00000-0  11356-4 0  9999,2 53741  53.2163 152.4542 0001200  85.2483 274.8646 15.08835418 89094,6917.894,95.438,540.59,538.929,0.0
53741.0,STARLINK-4614,PAYLOAD,2024-04-08 19:59:43,15.08836466,0.0001203,53.2164,150.6702,84.5602,275.5527,1.4792e-05,-5.2e-07,0.0,0 STARLINK-4614,1 53741U 22107AT  24099.83313906 -.00000052  00000-0  14792-4 0  9994,2 53741  53.2164 150.6702 0001203  84.5602 275.5527 15.08836466 88371,6917.891,95.438,540.588,538.924,0.0
53741.0,STARLINK-4614,PAYLOAD,2024-04-09 10:18:11,15.08835368,0.0001277,53.2169,147.9944,85.9216,274.1922,-4.3361e-06,-3.57e-06,0.0,0 STARLINK-4614,1 53741U 22107AT  24100.42930212 -.00000357  00000-0 -43361-5 0  9991,2 53741  53.2169 147.9944 0001277  85.9216 274.1922 15.08835368 89241,6917.895,95.438,540.643,538.876,0.0
53741.0,STARLINK-4614,PAYLOAD,2024-04-09 19:50:30,15.08835726,0.0001284,53.217,146.2102,85.0675,275.0463,2.7304e-06,-2.44e-06,0.0,0 STARLINK-4614,1 53741U 22107AT  24100.82674253 -.00000244  00000-0  27304-5 0  9998,2 53741  53.2170 146.2102 0001284  85.0675 275.0463 15.08835726 89304,6917.893,95.438,540.647,538.87,0.0
53741.0,STARLINK-4614,PAYLOAD,2024-04-10 03:47:26,15.0883627,0.0001266,53.2169,144.7235,86.2586,273.8551,2.1663e-05,5.7e-07,0.0,0 STARLINK-4614,1 53741U 22107AT  24101.15794208  .00000057  00000-0  21663-4 0  9990,2 53741  53.2169 144.7235 0001266  86.2586 273.8551 15.08836270 88573,6917.892,95.438,540.633,538.881,0.0
53741.0,STARLINK-4614,PAYLOAD,2024-04-10 11:44:21,15.08836428,0.0001272,53.2168,143.2367,85.8662,274.2475,2.1029e-05,4.7e-07,0.0,0 STARLINK-4614,1 53741U 22107AT  24101.48914259  .00000047  00000-0  21029-4 0  9991,2 53741  53.2168 143.2367 0001272  85.8662 274.2475 15.08836428 89407,6917.891,95.438,540.636,538.876,0.0
53741.0,STARLINK-4614,PAYLOAD,2024-04-10 19:41:17,15.08838204,0.0001265,53.2167,141.7499,86.1441,273.9696,2.2058e-05,6.3e-07,0.0,0 STARLINK-4614,1 53741U 22107AT  24101.82034179  .00000063  00000-0  22058-4 0  9994,2 53741  53.2167 141.7499 0001265  86.1441 273.9696 15.08838204 89456,6917.886,95.438,540.626,538.876,0.0
53741.0,STARLINK-4614,PAYLOAD,2024-04-11 11:35:09,15.08835747,0.000127,53.2165,138.7759,85.8726,274.2411,1.4993e-05,-4.9e-07,0.0,0 STARLINK-4614,1 53741U 22107AT  24102.48274473 -.00000049  00000-0  14993-4 0  9994,2 53741  53.2165 138.7759 0001270  85.8726 274.2411 15.08835747 88779,6917.893,95.438,540.637,538.88,0.0
53741.0,STARLINK-4614,PAYLOAD,2024-04-11 19:32:04,15.08837823,0.0001268,53.2165,137.289,85.1804,274.9333,2.155e-05,5.5e-07,0.0,0 STARLINK-4614,1 53741U 22107AT  24102.81394352  .00000055  00000-0  21550-4 0  9993,2 53741  53.2165 137.2890 0001268  85.1804 274.9333 15.08837823 89606,6917.887,95.438,540.629,538.875,0.0
53741.0,STARLINK-4614,PAYLOAD,2024-04-12 11:25:56,15.0883843,0.0001273,53.2163,134.3155,85.1746,274.9391,1.174e-05,-1.01e-06,0.0,0 STARLINK-4614,1 53741U 22107AT  24103.47634414 -.00000101  00000-0  11740-4 0  9995,2 53741  53.2163 134.3155 0001273  85.1746 274.9391 15.08838430 89707,6917.885,95.438,540.631,538.87,0.0
53741.0,STARLINK-4614,PAYLOAD,2024-04-13 01:44:24,15.08839236,0.0001234,53.2163,131.6386,86.1008,274.0125,3.538e-05,2.75e-06,0.0,0 STARLINK-4614,1 53741U 22107AT  24104.07250219  .00000275  00000-0  35380-4 0  9996,2 53741  53.2163 131.6386 0001234  86.1008 274.0125 15.08839236 89017,6917.883,95.438,540.601,538.894,0.0
53741.0,STARLINK-4614,PAYLOAD,2024-04-13 08:05:56,15.08840573,0.000124,53.2162,130.4492,85.6221,274.4913,3.1036e-05,2.06e-06,0.0,0 STARLINK-4614,1 53741U 22107AT  24104.33746156  .00000206  00000-0  31036-4 0  9993,2 53741  53.2162 130.4492 0001240  85.6221 274.4913 15.08840573 89834,6917.879,95.438,540.601,538.886,0.0
53741.0,STARLINK-4614,PAYLOAD,2024-04-14 04:45:57,15.0883798,0.0001244,53.2162,126.5831,85.5991,274.5143,1.638e-05,-2.7e-07,0.0,0 STARLINK-4614,1 53741U 22107AT  24105.19858317 -.00000027  00000-0  16380-4 0  9998,2 53741  53.2162 126.5831 0001244  85.5991 274.5143 15.08837980 89186,6917.887,95.438,540.612,538.891,0.0
53741.0,STARLINK-4614,PAYLOAD,2024-04-14 07:56:43,15.08838137,0.0001226,53.2161,125.9877,86.4291,273.6841,3.8833e-06,-2.26e-06,0.0,0 STARLINK-4614,1 53741U 22107AT  24105.33106341 -.00000226  00000-0  38833-5 0  9996,2 53741  53.2161 125.9877 0001226  86.4291 273.6841 15.08838137 89989,6917.886,95.438,540.599,538.903,0.0
53741.0,STARLINK-4614,PAYLOAD,2024-04-15 06:12:07,15.08839299,0.0001266,53.2163,121.8244,88.6733,271.4405,-5.2109e-06,-3.71e-06,0.0,0 STARLINK-4614,1 53741U 22107AT  24106.25842311 -.00000371  00000-0 -52109-5 0  9996,2 53741  53.2163 121.8244 0001266  88.6733 271.4405 15.08839299 89345,6917.883,95.438,540.623,538.872,0.0
53741.0,STARLINK-4614,PAYLOAD,2024-04-16 07:38:18,15.08835672,0.0001266,53.2162,117.0673,86.4791,273.6346,8.6814e-06,-1.5e-06,0.0,0 STARLINK-4614,1 53741U 22107AT  24107.31826618 -.00000150  00000-0  86814-5 0  9990,2 53741  53.2162 117.0673 0001266  86.4791 273.6346 15.08835672 89504,6917.894,95.438,540.634,538.883,0.0
53741.0,STARLINK-4614,PAYLOAD,2024-04-16 17:10:36,15.08839363,0.0001277,53.2164,115.2831,86.2636,273.8502,3.5449e-05,2.76e-06,0.0,0 STARLINK-4614,1 53741U 22107AT  24107.71570347  .00000276  00000-0  35449-4 0  9994,2 53741  53.2164 115.2831 0001277  86.2636 273.8502 15.08839363 90341,6917.882,95.438,540.631,538.864,0.0
53741.0,STARLINK-4614,PAYLOAD,2024-04-17 10:39:51,15.08834873,0.000139,53.217,112.013,89.2143,270.9009,-1.938e-06,-3.19e-06,0.0,0 STARLINK-4614,1 53741U 22107AT  24108.44434988 -.00000319  00000-0 -19380-5 0  9992,2 53741  53.2170 112.0130 0001390  89.2143 270.9009 15.08834873 89672,6917.896,95.438,540.723,538.799,0.0
53741.0,STARLINK-4614,PAYLOAD,2024-04-18 08:55:16,15.08830347,0.0001386,53.2166,107.8505,95.9892,264.1258,-2.1714e-05,-6.33e-06,0.0,0 STARLINK-4614,1 53741U 22107AT  24109.37171726 -.00000633  00000-0 -21714-4 0  9995,2 53741  53.2166 107.8505 0001386  95.9892 264.1258 15.08830347 90591,6917.91,95.438,540.734,538.816,0.0
53741.0,STARLINK-4614,PAYLOAD,2024-04-19 03:59:53,15.08834872,0.0001282,53.2158,104.2795,86.7472,273.3667,5.3257e-05,5.6e-06,0.0,0 STARLINK-4614,1 53741U 22107AT  24110.16659443  .00000560  00000-0  53257-4 0  9995,2 53741  53.2158 104.2795 0001282  86.7472 273.3667 15.08834872 89930,6917.896,95.438,540.648,538.874,0.0
53741.0,STARLINK-4614,PAYLOAD,2024-04-19 08:46:02,15.08838695,0.0001369,53.2163,103.3881,94.5263,265.5885,7.2663e-05,8.69e-06,0.0,0 STARLINK-4614,1 53741U 22107AT  24110.36531178  .00000869  00000-0  72663-4 0  9995,2 53741  53.2163 103.3881 0001369  94.5263 265.5885 15.08838695 90746,6917.884,95.438,540.696,538.802,0.0
53741.0,STARLINK-4614,PAYLOAD,2024-04-20 05:26:03,15.08843594,0.0001439,53.2164,99.5238,87.5882,272.5275,0.0001282,1.753e-05,0.0,0 STARLINK-4614,1 53741U 22107AT  24111.22642657  .00001753  00000-0  12820-3 0  9997,2 53741  53.2164  99.5238 0001439  87.5882 272.5275 15.08843594 90099,6917.869,95.437,540.73,538.739,0.0
53741.0,STARLINK-4614,PAYLOAD,2024-04-20 08:36:49,15.08845153,0.0001498,53.2169,98.9286,85.2955,274.8209,0.00013804,1.91e-05,0.0,0 STARLINK-4614,1 53741U 22107AT  24111.35890518  .00001910  00000-0  13804-3 0  9990,2 53741  53.2169  98.9286 0001498  85.2955 274.8209 15.08845153 90894,6917.865,95.437,540.766,538.693,0.0
53741.0,STARLINK-4614,PAYLOAD,2024-04-21 03:41:27,15.08838877,0.0001501,53.218,95.3551,95.818,264.2983,-4.6538e-05,-1.029e-05,0.0,0 STARLINK-4614,1 53741U 22107AT  24112.15379532 -.00001029  00000-0 -46538-4 0  9991,2 53741  53.2180  95.3551 0001501  95.8180 264.2983 15.08838877 90230,6917.884,95.438,540.787,538.71,0.0
53741.0,STARLINK-4614,PAYLOAD,2024-04-21 08:27:37,15.08832094,0.0001533,53.2177,94.4665,88.9203,271.1965,-9.1275e-05,-1.74e-05,0.0,0 STARLINK-4614,1 53741U 22107AT  24112.35252201 -.00001740  00000-0 -91275-4 0  9994,2 53741  53.2177  94.4665 0001533  88.9203 271.1965 15.08832094 91048,6917.905,95.438,540.83,538.709,0.0
53741.0,STARLINK-4614,PAYLOAD,2024-04-21 22:46:05,15.08843159,0.0001335,53.218,91.7909,111.4432,248.6702,-0.00011322,-2.09e-05,0.0,0 STARLINK-4614,1 53741U 22107AT  24112.94867630 -.00002090  00000-0 -11322-3 0  9990,2 53741  53.2180  91.7909 0001335 111.4432 248.6702 15.08843159 91131,6917.871,95.437,540.659,538.812,0.0
